STARLINK-3743           
1 52118U 22029AG  26068.40556993  .00000600  00000+0  55760-4 0  9997
2 52118  53.2172  80.3961 0001394  96.2160 263.8991 15.08837415220742
YAM-8                   
1 63254U 25052AW  26068.73092778  .00007810  00000+0  47267-3 0  9993
2 63254  97.7023 329.5345 0002369 152.6796 207.4558 15.10898938 54245
